{
  "norad_id": 66199,
  "name": "STARLINK-35509",
  "history": [
    {
      "epoch": "2026-03-28T11:41:29.193216Z",
      "apogee_km": 476.0947911851108,
      "perigee_km": 474.4026902457281,
      "latitude_deg": -1.2703362703357234e-05,
      "longitude_deg": 156.52486588506605,
      "height_km": 476.1479228106823,
      "semi_major_axis_km": 6853.385740715419,
      "eccentricity": 0.00012345,
      "inclination_deg": 53.1584,
      "raan_deg": 157.8034,
      "arg_perigee_deg": 90.0835,
      "mean_anomaly_deg": 270.0307,
      "mean_motion_rev_day": 15.30188723
    }
  ]
}