{"fetched_at":"2026-03-29T02:12:04Z","count":15717,"tles":[{"name":"STARLINK-35509","line1":"1 66199U 25243Y   26087.48714344  .00022604  00000+0  77326-3 0  9996","line2":"2 66199  53.1584 157.8034 0001234  90.0835 270.0307 15.30188723 23532","category":"Starlink"}]}